NORAD_CAT_ID,OBJECT_NAME,OBJECT_TYPE,EPOCH,MEAN_MOTION,ECCENTRICITY,INCLINATION,RA_OF_ASC_NODE,ARG_OF_PERICENTER,MEAN_ANOMALY,BSTAR,MEAN_MOTION_DOT,MEAN_MOTION_DDOT,TLE_LINE0,TLE_LINE1,TLE_LINE2,SEMIMAJOR_AXIS,PERIOD,APOGEE,PERIGEE,DECAYED
52283.0,STARLINK-3789,PAYLOAD,2022-09-30 19:38:43,15.0885642,0.0002002,53.2183,346.9532,49.8669,310.2498,0.00065021,0.0001008,0.0,0 STARLINK-3789,1 52283U 22041Y   22273.81855968  .00010080  00000-0  65021-3 0  9991,2 52283  53.2183 346.9532 0002002  49.8669 310.2498 15.08856420 24778,6917.83,95.437,541.08,538.31,0.0
52283.0,STARLINK-3789,PAYLOAD,2022-10-01 05:11:01,15.08861189,0.0001823,53.2184,345.1687,50.8973,309.2181,0.0005352,8.245e-05,0.0,0 STARLINK-3789,1 52283U 22041Y   22274.21599338  .00008245  00000-0  53520-3 0  9993,2 52283  53.2184 345.1687 0001823  50.8973 309.2181 15.08861189 26059,6917.816,95.436,540.942,538.42,0.0
52283.0,STARLINK-3789,PAYLOAD,2022-10-01 11:32:34,15.08854864,0.0001899999999999,53.2184,343.9795,47.9123,312.203,0.00037632,5.709e-05,0.0,0 STARLINK-3789,1 52283U 22041Y   22274.48095448  .00005709  00000-0  37632-3 0  9993,2 52283  53.2184 343.9795 0001900  47.9123 312.2030 15.08854864 24872,6917.835,95.437,541.014,538.386,0.0
52283.0,STARLINK-3789,PAYLOAD,2022-10-01 16:18:43,15.08864424,0.0001950999999999,53.2184,343.0874,47.731,312.3847,0.00046845,7.18e-05,0.0,0 STARLINK-3789,1 52283U 22041Y   22274.67966916  .00007180  00000-0  46845-3 0  9992,2 52283  53.2184 343.0874 0001951  47.7310 312.3847 15.08864424 24907,6917.806,95.436,541.02,538.321,0.0
52283.0,STARLINK-3789,PAYLOAD,2022-10-02 05:01:48,15.08841183,0.0001809,53.2183,340.7086,43.5083,316.6051,-0.00026163,-4.45e-05,0.0,0 STARLINK-3789,1 52283U 22041Y   22275.20958867 -.00004450  00000-0 -26163-3 0  9998,2 52283  53.2183 340.7086 0001809  43.5083 316.6051 15.08841183 26204,6917.877,95.437,540.993,538.49,0.0
52283.0,STARLINK-3789,PAYLOAD,2022-10-02 11:23:21,15.08824118,0.0001837,53.2185,339.5193,43.7214,316.3923,-0.00049762,-8.196e-05,0.0,0 STARLINK-3789,1 52283U 22041Y   22275.47455478 -.00008196  00000-0 -49762-3 0  9998,2 52283  53.2185 339.5193 0001837  43.7214 316.3923 15.08824118 26248,6917.929,95.439,541.065,538.523,0.0
52283.0,STARLINK-3789,PAYLOAD,2022-10-02 16:09:31,15.08829812,0.0001858,53.2183,338.6273,44.4925,315.6216,-0.00018208,-3.184e-05,0.0,0 STARLINK-3789,1 52283U 22041Y   22275.67327702 -.00003184  00000-0 -18208-3 0  9991,2 52283  53.2183 338.6273 0001858  44.4925 315.6216 15.08829812 25056,6917.9119999999975,95.438,541.062,538.491,0.0
52283.0,STARLINK-3789,PAYLOAD,2022-10-03 04:52:36,15.08841255,0.0001896999999999,53.2184,336.2483,43.8784,316.2359,0.0010321,0.00016177,0.0,0 STARLINK-3789,1 52283U 22041Y   22276.20320105  .00016177  00000-0  10321-2 0  9992,2 52283  53.2184 336.2483 0001897  43.8784 316.2359 15.08841255 26357,6917.877,95.437,541.054,538.429,0.0
52283.0,STARLINK-3789,PAYLOAD,2022-10-03 12:49:32,15.08856547,0.0001883,53.2184,334.7616,44.3315,315.7828,0.0013965,0.00022017,0.0,0 STARLINK-3789,1 52283U 22041Y   22276.53439916  .00022017  00000-0  13965-2 0  9996,2 52283  53.2184 334.7616 0001883  44.3315 315.7828 15.08856547 25184,6917.83,95.437,540.997,538.3919999999998,0.0
52283.0,STARLINK-3789,PAYLOAD,2022-10-03 16:00:18,15.08863592,0.0001901,53.2183,334.1668,44.2939,315.8205,0.0014402999999999,0.00022724,0.0,0 STARLINK-3789,1 52283U 22041Y   22276.66687712  .00022724  00000-0  14403-2 0  9992,2 52283  53.2183 334.1668 0001901  44.2939 315.8205 15.08863592 25207,6917.808000000001,95.436,540.988,538.3580000000002,0.0
52283.0,STARLINK-3789,PAYLOAD,2022-10-04 11:04:55,15.08852592,0.0001859,53.218,330.5986,45.7182,314.3962,0.00026389,3.916e-05,0.0,0 STARLINK-3789,1 52283U 22041Y   22277.46175139  .00003916  00000-0  26389-3 0  9995,2 52283  53.2180 330.5986 0001859  45.7182 314.3962 15.08852592 25320,6917.842,95.437,540.993,538.4209999999998,0.0
52283.0,STARLINK-3789,PAYLOAD,2022-10-04 20:37:14,15.0884831,0.0001949,53.2179,328.8148,45.4741,314.641,6.4762e-05,7.43e-06,0.0,0 STARLINK-3789,1 52283U 22041Y   22277.85919102  .00000743  00000-0  64762-4 0  9997,2 52283  53.2179 328.8148 0001949  45.4741 314.6410 15.08848310 26602,6917.855,95.437,541.068,538.372,0.0
52283.0,STARLINK-3789,PAYLOAD,2022-10-05 10:55:42,15.08838505,0.0002026,53.218,326.1386,44.3021,315.8133,-3.8617e-06,-3.5000000000000016e-06,0.0,0 STARLINK-3789,1 52283U 22041Y   22278.45535700 -.00000350  00000-0 -38617-5 0  9999,2 52283  53.2180 326.1386 0002026  44.3021 315.8133 15.08838505 26694,6917.885,95.438,541.1519999999998,538.3480000000002,0.0
52283.0,STARLINK-3789,PAYLOAD,2022-10-06 09:11:06,15.08851092,0.0002433,53.2182,321.9781,37.9831,322.1333,0.00020975,3.052e-05,0.0,0 STARLINK-3789,1 52283U 22041Y   22279.38271264  .00003052  00000-0  20975-3 0  9990,2 52283  53.2182 321.9781 0002433  37.9831 322.1333 15.08851092 25617,6917.846,95.437,541.395,538.028,0.0
52283.0,STARLINK-3789,PAYLOAD,2022-10-06 20:18:48,15.088461,0.0002228,53.2183,319.8956,40.0963,320.0193,0.00012812,1.752e-05,0.0,0 STARLINK-3789,1 52283U 22041Y   22279.84639432  .00001752  00000-0  12812-3 0  9992,2 52283  53.2183 319.8956 0002228  40.0963 320.0193 15.08846100 25683,6917.861999999999,95.437,541.268,538.185,0.0
52283.0,STARLINK-3789,PAYLOAD,2022-10-07 02:40:21,15.08837669,0.0002110999999999,53.2183,318.7048,46.878,313.2389,0.00012784,1.747e-05,0.0,0 STARLINK-3789,1 52283U 22041Y   22280.11135718  .00001747  00000-0  12784-3 0  9994,2 52283  53.2183 318.7048 0002111  46.8780 313.2389 15.08837669 26946,6917.888000000001,95.438,541.2130000000002,538.2919999999998,0.0
52283.0,STARLINK-3789,PAYLOAD,2022-10-07 09:01:53,15.08847928,0.0002078,53.2179,317.515,47.2457,312.871,0.00026352,3.909e-05,0.0,0 STARLINK-3789,1 52283U 22041Y   22280.37631307  .00003909  00000-0  26352-3 0  9995,2 52283  53.2179 317.5150 0002078  47.2457 312.8710 15.08847928 26986,6917.856,95.437,541.159,538.284,0.0
52283.0,STARLINK-3789,PAYLOAD,2022-10-07 20:09:35,15.08842305,0.0001950999999999,53.2182,315.4332,48.1797,311.9361,0.00010547,1.391e-05,0.0,0 STARLINK-3789,1 52283U 22041Y   22280.83999543  .00001391  00000-0  10547-3 0  9997,2 52283  53.2182 315.4332 0001951  48.1797 311.9361 15.08842305 27050,6917.873000000001,95.437,541.0880000000002,538.389,0.0
52283.0,STARLINK-3789,PAYLOAD,2022-10-08 08:52:40,15.08843179,0.0002053,53.2188,313.0538,39.0333,321.0807,-1.0056e-05,-4.48e-06,0.0,0 STARLINK-3789,1 52283U 22041Y   22281.36991532 -.00000448  00000-0 -10056-4 0  9996,2 52283  53.2188 313.0538 0002053  39.0333 321.0807 15.08843179 25917,6917.871,95.437,541.156,538.315,0.0
52283.0,STARLINK-3789,PAYLOAD,2022-10-09 05:32:41,15.08835983,0.0001995,53.2181,309.1881,45.9247,314.1909,5.383e-05,5.69e-06,0.0,0 STARLINK-3789,1 52283U 22041Y   22282.23104128  .00000569  00000-0  53830-4 0  9999,2 52283  53.2181 309.1881 0001995  45.9247 314.1909 15.08835983 27261,6917.893,95.438,541.138,538.378,0.0
52283.0,STARLINK-3789,PAYLOAD,2022-10-09 08:43:28,15.0883163,0.0001949,53.2185,308.5938,44.3882,315.7266,7.0561e-06,-1.76e-06,0.0,0 STARLINK-3789,1 52283U 22041Y   22282.36352591 -.00000176  00000-0  70561-5 0  9998,2 52283  53.2185 308.5938 0001949  44.3882 315.7266 15.08831630 26063,6917.906,95.438,541.119,538.423,0.0
52283.0,STARLINK-3789,PAYLOAD,2022-10-09 18:15:46,15.08842906,0.000188,53.2188,306.8082,48.4296,311.6857,7.554e-05,9.14e-06,0.0,0 STARLINK-3789,1 52283U 22041Y   22282.76095719  .00000914  00000-0  75540-4 0  9998,2 52283  53.2188 306.8082 0001880  48.4296 311.6857 15.08842906 26121,6917.871999999999,95.437,541.0369999999998,538.436,0.0
52283.0,STARLINK-3789,PAYLOAD,2022-10-10 11:45:01,15.08834631,0.0002183,53.2173,303.5414,36.0989,324.015,8.541799999999999e-05,1.071e-05,0.0,0 STARLINK-3789,1 52283U 22041Y   22283.48960556  .00001071  00000-0  85418-4 0  9998,2 52283  53.2173 303.5414 0002183  36.0989 324.0150 15.08834631 26239,6917.897,95.438,541.2719999999998,538.252,0.0
52283.0,STARLINK-3789,PAYLOAD,2022-10-10 18:06:34,15.08832291,0.0002008,53.2175,302.3511,41.1196,318.9947,1.425e-05,-6.1e-07,0.0,0 STARLINK-3789,1 52283U 22041Y   22283.75456648 -.00000061  00000-0  14250-4 0  9995,2 52283  53.2175 302.3511 0002008  41.1196 318.9947 15.08832291 26279,6917.904,95.438,541.158,538.38,0.0
52283.0,STARLINK-3789,PAYLOAD,2022-10-11 10:00:26,15.08830471,0.0001924,53.2181,299.3763,40.7892,319.3244,-1.7908e-06,-3.17e-06,0.0,0 STARLINK-3789,1 52283U 22041Y   22284.41697420 -.00000317  00000-0 -17908-5 0  9993,2 52283  53.2181 299.3763 0001924  40.7892 319.3244 15.08830471 26378,6917.91,95.438,541.106,538.444,0.0
52283.0,STARLINK-3789,PAYLOAD,2022-10-12 09:51:13,15.08841715,0.0002072,53.2174,294.916,45.0599,315.0561,0.0001689,2.401e-05,0.0,0 STARLINK-3789,1 52283U 22041Y   22285.41057172  .00002401  00000-0  16890-3 0  9999,2 52283  53.2174 294.9160 0002072  45.0599 315.0561 15.08841715 26524,6917.875,95.437,541.174,538.307,0.0
52283.0,STARLINK-3789,PAYLOAD,2022-10-12 17:48:09,15.08831434,0.0002039,53.2172,293.4292,45.1829,314.9328,0.0001008,1.316e-05,0.0,0 STARLINK-3789,1 52283U 22041Y   22285.74177925  .00001316  00000-0  10080-3 0  9993,2 52283  53.2172 293.4292 0002039  45.1829 314.9328 15.08831434 27798,6917.906999999997,95.438,541.182,538.361,0.0
52283.0,STARLINK-3789,PAYLOAD,2022-10-13 08:06:37,15.08839469,0.000188,53.2168,290.7522,41.205,318.9084,0.00021454,3.128e-05,0.0,0 STARLINK-3789,1 52283U 22041Y   22286.33793666  .00003128  00000-0  21454-3 0  9995,2 52283  53.2168 290.7522 0001880  41.2050 318.9084 15.08839469 27884,6917.882,95.438,541.048,538.446,0.0
52283.0,STARLINK-3789,PAYLOAD,2022-10-13 17:38:56,15.08838508,0.0001911,53.2168,288.9681,42.2791,317.8348,0.00018153,2.602e-05,0.0,0 STARLINK-3789,1 52283U 22041Y   22286.73537840  .00002602  00000-0  18153-3 0  9997,2 52283  53.2168 288.9681 0001911  42.2791 317.8348 15.08838508 26723,6917.885,95.438,541.072,538.428,0.0
